{"type": "FeatureCollection", "features": [ {"type": "Feature", "properties": {"norad_id": 43010, "name": "FENGYUN 3D", "group": "weather", "lat": 56.00529706342454, "lon": 143.0705533023648, "alt_km": 820.8605408223866, "timestamp": "2025-12-09T05:43:20.370032+00:00", "meta": {"OBJECT_NAME": "FENGYUN 3D", "OBJECT_ID": "2017-072A", "EPOCH": "2025-12-08T20:41:17.613888", "MEAN_MOTION": 14.19681243, "ECCENTRICITY": 7.54e-05, "INCLINATION": 98.989, "RA_OF_ASC_NODE": 309.1135, "ARG_OF_PERICENTER": 195.0846, "MEAN_ANOMALY": 165.0307, "EPHEMERIS_TYPE": 0, "CLASSIFICATION_TYPE": "U", "NORAD_CAT_ID": 43010, "ELEMENT_SET_NO": 999, "REV_AT_EPOCH": 41798, "BSTAR": -5.3836e-05, "MEAN_MOTION_DOT": -1.6e-06, "MEAN_MOTION_DDOT": 0}, "tle": {"line1": "1 43010U 17072A   25342.86200942 -.00000160  00000+0 -53836-4 0  9999", "line2": "2 43010  98.9890 309.1135 0000754 195.0846 165.0307 14.19681243417984"}}, "geometry": {"type": "Point", "coordinates": [143.0705533023648, 56.00529706342454]}}, {"type": "Feature", "properties": {"norad_id": 43013, "name": "NOAA 20 (JPSS-1)", "group": "weather", "lat": -78.64180056948544, "lon": -30.29365894913089, "alt_km": 835.8093891702893, "timestamp": "2025-12-09T05:43:20.370044+00:00", "meta": {"OBJECT_NAME": "NOAA 20 (JPSS-1)", "OBJECT_ID": "2017-073A", "EPOCH": "2025-12-08T19:57:42.437088", "MEAN_MOTION": 14.19524214, "ECCENTRICITY": 0.0002133, "INCLINATION": 98.7593, "RA_OF_ASC_NODE": 279.1714, "ARG_OF_PERICENTER": 93.098, "MEAN_ANOMALY": 267.044, "EPHEMERIS_TYPE": 0, "CLASSIFICATION_TYPE": "U", "NORAD_CAT_ID": 43013, "ELEMENT_SET_NO": 999, "REV_AT_EPOCH": 41746, "BSTAR": 0.00011451, "MEAN_MOTION_DOT": 1.97e-06, "MEAN_MOTION_DDOT": 0}, "tle": {"line1": "1 43013U 17073A   25342.83174117  .00000197  00000+0  11451-3 0  9998", "line2": "2 43013  98.7593 279.1714 0002133  93.0980 267.0440 14.19524214417461"}}, "geometry": {"type": "Point", "coordinates": [-30.29365894913089, -78.64180056948544]}}, {"type": "Feature", "properties": {"norad_id": 43226, "name": "GOES 17", "group": "weather", "lat": -0.09183424737421052, "lon": 74.58128986625226, "alt_km": 35799.78114148863, "timestamp": "2025-12-09T05:43:20.370064+00:00", "meta": {"OBJECT_NAME": "GOES 17", "OBJECT_ID": "2018-022A", "EPOCH": "2025-12-08T14:53:22.356960", "MEAN_MOTION": 1.00271693, "ECCENTRICITY": 0.0003422, "INCLINATION": 0.4492, "RA_OF_ASC_NODE": 89.1814, "ARG_OF_PERICENTER": 185.3284, "MEAN_ANOMALY": 296.9603, "EPHEMERIS_TYPE": 0, "CLASSIFICATION_TYPE": "U", "NORAD_CAT_ID": 43226, "ELEMENT_SET_NO": 999, "REV_AT_EPOCH": 2851, "BSTAR": 0, "MEAN_MOTION_DOT": -1.8e-06, "MEAN_MOTION_DDOT": 0}, "tle": {"line1": "1 43226U 18022A   25342.62039765 -.00000180  00000+0  00000+0 0  9992", "line2": "2 43226   0.4492  89.1814 0003422 185.3284 296.9603  1.00271693 28511"}}, "geometry": {"type": "Point", "coordinates": [74.58128986625226, -0.09183424737421052]}}, {"type": "Feature", "properties": {"norad_id": 43491, "name": "FENGYUN 2H", "group": "weather", "lat": 0.7614058974104548, "lon": -116.55705694872113, "alt_km": 35773.71862549166, "timestamp": "2025-12-09T05:43:20.370087+00:00", "meta": {"OBJECT_NAME": "FENGYUN 2H", "OBJECT_ID": "2018-050A", "EPOCH": "2025-12-08T20:49:49.317888", "MEAN_MOTION": 1.00271046, "ECCENTRICITY": 0.0002953, "INCLINATION": 2.5402, "RA_OF_ASC_NODE": 81.3617, "ARG_OF_PERICENTER": 164.781, "MEAN_ANOMALY": 223.5417, "EPHEMERIS_TYPE": 0, "CLASSIFICATION_TYPE": "U", "NORAD_CAT_ID": 43491, "ELEMENT_SET_NO": 999, "REV_AT_EPOCH": 2753, "BSTAR": 0, "MEAN_MOTION_DOT": -1.28e-06, "MEAN_MOTION_DDOT": 0}, "tle": {"line1": "1 43491U 18050A   25342.86793192 -.00000128  00000+0  00000+0 0  9996", "line2": "2 43491   2.5402  81.3617 0002953 164.7810 223.5417  1.00271046 27530"}}, "geometry": {"type": "Point", "coordinates": [-116.55705694872113, 0.7614058974104548]}}, {"type": "Feature", "properties": {"norad_id": 43689, "name": "METOP-C", "group": "weather", "lat": 32.98659142336383, "lon": 35.36211150878277, "alt_km": 817.1412485790715, "timestamp": "2025-12-09T05:43:20.370109+00:00", "meta": {"OBJECT_NAME": "METOP-C", "OBJECT_ID": "2018-087A", "EPOCH": "2025-12-08T19:25:47.504640", "MEAN_MOTION": 14.21509801, "ECCENTRICITY": 0.0001502, "INCLINATION": 98.6935, "RA_OF_ASC_NODE": 40.6393, "ARG_OF_PERICENTER": 49.0422, "MEAN_ANOMALY": 311.0885, "EPHEMERIS_TYPE": 0, "CLASSIFICATION_TYPE": "U", "NORAD_CAT_ID": 43689, "ELEMENT_SET_NO": 999, "REV_AT_EPOCH": 36778, "BSTAR": 0.0001521, "MEAN_MOTION_DOT": 2.89e-06, "MEAN_MOTION_DDOT": 0}, "tle": {"line1": "1 43689U 18087A   25342.80957760  .00000289  00000+0  15210-3 0  9992", "line2": "2 43689  98.6935  40.6393 0001502  49.0422 311.0885 14.21509801367784"}}, "geometry": {"type": "Point", "coordinates": [35.36211150878277, 32.98659142336383]}}, {"type": "Feature", "properties": {"norad_id": 43823, "name": "GEO-KOMPSAT-2A", "group": "weather", "lat": -0.019612132280484668, "lon": -67.66576035142992, "alt_km": 35786.4748001666, "timestamp": "2025-12-09T05:43:20.370123+00:00", "meta": {"OBJECT_NAME": "GEO-KOMPSAT-2A", "OBJECT_ID": "2018-100A", "EPOCH": "2025-12-08T09:04:40.751616", "MEAN_MOTION": 1.00270893, "ECCENTRICITY": 1.774e-05, "INCLINATION": 0.0576, "RA_OF_ASC_NODE": 113.8278, "ARG_OF_PERICENTER": 87.1447, "MEAN_ANOMALY": 140.8536, "EPHEMERIS_TYPE": 0, "CLASSIFICATION_TYPE": "U", "NORAD_CAT_ID": 43823, "ELEMENT_SET_NO": 999, "REV_AT_EPOCH": 2571, "BSTAR": 0, "MEAN_MOTION_DOT": -3.41e-06, "MEAN_MOTION_DDOT": 0}, "tle": {"line1": "1 43823U 18100A   25342.37824944 -.00000341  00000+0  00000+0 0  9994", "line2": "2 43823   0.0576 113.8278 0000177  87.1447 140.8536  1.00270893 25718"}}, "geometry": {"type": "Point", "coordinates": [-67.66576035142992, -0.019612132280484668]}}, {"type": "Feature", "properties": {"norad_id": 44387, "name": "METEOR-M2 2", "group": "weather", "lat": 70.22948520974249, "lon": -62.911140334355856, "alt_km": 803.9460687788905, "timestamp": "2025-12-09T05:43:20.370136+00:00", "meta": {"OBJECT_NAME": "METEOR-M2 2", "OBJECT_ID": "2019-038A", "EPOCH": "2025-12-08T20:57:15.114240", "MEAN_MOTION": 14.24288154, "ECCENTRICITY": 0.0001108, "INCLINATION": 98.8967, "RA_OF_ASC_NODE": 322.554, "ARG_OF_PERICENTER": 155.7051, "MEAN_ANOMALY": 204.418, "EPHEMERIS_TYPE": 0, "CLASSIFICATION_TYPE": "U", "NORAD_CAT_ID": 44387, "ELEMENT_SET_NO": 999, "REV_AT_EPOCH": 33420, "BSTAR": 4.7467e-05, "MEAN_MOTION_DOT": 6.4e-07, "MEAN_MOTION_DDOT": 0}, "tle": {"line1": "1 44387U 19038A   25342.87309160  .00000064  00000+0  47467-4 0  9998", "line2": "2 44387  98.8967 322.5540 0001108 155.7051 204.4180 14.24288154334200"}}, "geometry": {"type": "Point", "coordinates": [-62.911140334355856, 70.22948520974249]}}, {"type": "Feature", "properties": {"norad_id": 47719, "name": "ARKTIKA-M 1", "group": "weather", "lat": 59.73907113324536, "lon": 144.5349618237284, "alt_km": 36192.88990177563, "timestamp": "2025-12-09T05:43:20.370162+00:00", "meta": {"OBJECT_NAME": "ARKTIKA-M 1", "OBJECT_ID": "2021-016A", "EPOCH": "2025-12-01T02:41:41.634816", "MEAN_MOTION": 2.00613156, "ECCENTRICITY": 0.71974708, "INCLINATION": 63.1756, "RA_OF_ASC_NODE": 85.6045, "ARG_OF_PERICENTER": 269.084, "MEAN_ANOMALY": 15.7076, "EPHEMERIS_TYPE": 0, "CLASSIFICATION_TYPE": "U", "NORAD_CAT_ID": 47719, "ELEMENT_SET_NO": 999, "REV_AT_EPOCH": 3481, "BSTAR": 0, "MEAN_MOTION_DOT": -1.2e-07, "MEAN_MOTION_DDOT": 0}, "tle": {"line1": "1 47719U 21016A   25335.11228744 -.00000012  00000+0  00000+0 0  9997", "line2": "2 47719  63.1756  85.6045 7197470 269.0840  15.7076  2.00613156 34816"}}, "geometry": {"type": "Point", "coordinates": [144.5349618237284, 59.73907113324536]}}, {"type": "Feature", "properties": {"norad_id": 49008, "name": "FENGYUN 3E", "group": "weather", "lat": 80.80556542951541, "lon": -88.21822627068951, "alt_km": 818.6991787646539, "timestamp": "2025-12-09T05:43:20.370190+00:00", "meta": {"OBJECT_NAME": "FENGYUN 3E", "OBJECT_ID": "2021-062A", "EPOCH": "2025-12-08T20:51:25.632288", "MEAN_MOTION": 14.19877509, "ECCENTRICITY": 6e-05, "INCLINATION": 98.747, "RA_OF_ASC_NODE": 343.4356, "ARG_OF_PERICENTER": 297.3575, "MEAN_ANOMALY": 62.754, "EPHEMERIS_TYPE": 0, "CLASSIFICATION_TYPE": "U", "NORAD_CAT_ID": 49008, "ELEMENT_SET_NO": 999, "REV_AT_EPOCH": 22957, "BSTAR": -0.00014496, "MEAN_MOTION_DOT": -3.51e-06, "MEAN_MOTION_DDOT": 0}, "tle": {"line1": "1 49008U 21062A   25342.86904667 -.00000351  00000+0 -14496-3 0  9991", "line2": "2 49008  98.7470 343.4356 0000600 297.3575  62.7540 14.19877509229570"}}, "geometry": {"type": "Point", "coordinates": [-88.21822627068951, 80.80556542951541]}}, {"type": "Feature", "properties": {"norad_id": 51850, "name": "GOES 18", "group": "weather", "lat": 0.0024451426703894327, "lon": 27.07084170625735, "alt_km": 35786.30004016315, "timestamp": "2025-12-09T05:43:20.370206+00:00", "meta": {"OBJECT_NAME": "GOES 18", "OBJECT_ID": "2022-021A", "EPOCH": "2025-12-08T18:05:20.073120", "MEAN_MOTION": 1.00270752, "ECCENTRICITY": 7.19e-05, "INCLINATION": 0.0115, "RA_OF_ASC_NODE": 94.7936, "ARG_OF_PERICENTER": 202.9599, "MEAN_ANOMALY": 274.3353, "EPHEMERIS_TYPE": 0, "CLASSIFICATION_TYPE": "U", "NORAD_CAT_ID": 51850, "ELEMENT_SET_NO": 999, "REV_AT_EPOCH": 468, "BSTAR": 0, "MEAN_MOTION_DOT": 9.9e-07, "MEAN_MOTION_DDOT": 0}, "tle": {"line1": "1 51850U 22021A   25342.75370455  .00000099  00000+0  00000+0 0  9994", "line2": "2 51850   0.0115  94.7936 0000719 202.9599 274.3353  1.00270752  4688"}}, "geometry": {"type": "Point", "coordinates": [27.07084170625735, 0.0024451426703894327]}}]}